COMMENT,ORIGINATOR,NORAD_CAT_ID,OBJECT_NAME,OBJECT_TYPE,CLASSIFICATION_TYPE,INTLDES,EPOCH,EPOCH_MICROSECONDS,MEAN_MOTION,ECCENTRICITY,INCLINATION,RA_OF_ASC_NODE,ARG_OF_PERICENTER,MEAN_ANOMALY,EPHEMERIS_TYPE,ELEMENT_SET_NO,REV_AT_EPOCH,BSTAR,MEAN_MOTION_DOT,MEAN_MOTION_DDOT,FILE,TLE_LINE0,TLE_LINE1,TLE_LINE2,OBJECT_ID,OBJECT_NUMBER,SEMIMAJOR_AXIS,PERIOD,APOGEE,PERIGEE,DECAYED
GENERATED VIA SPACETRACK.ORG API,18 SPCS,4084,SL-8 DEB,DEBRIS,U,69070C,2024-08-27 22:40:30,503136,14.46637544,0.0021633,74.0665,103.1852,166.4854,193.6889,0,999,90056,0.0001052,3.54e-06,0,4460045,0 SL-8 DEB,1 04084U 69070C   24240.94479749  .00000354  00000-0  10520-3 0  9996,2 04084  74.0665 103.1852 0021633 166.4854 193.6889 14.46637544900563,1969-070C,4084,7114.789,99.541,752.045,721.262,0
GENERATED VIA SPACETRACK.ORG API,18 SPCS,4084,SL-8 DEB,DEBRIS,U,69070C,2024-08-28 08:37:59,966976,14.46638093,0.0021608,74.0664,102.4116,165.5881,194.5899,0,999,90062,0.00011599,3.93e-06,0,4461114,0 SL-8 DEB,1 04084U 69070C   24241.35972184  .00000393  00000-0  11599-3 0  9993,2 04084  74.0664 102.4116 0021608 165.5881 194.5899 14.46638093900627,1969-070C,4084,7114.787,99.541,752.026,721.278,0
GENERATED VIA SPACETRACK.ORG API,18 SPCS,4084,SL-8 DEB,DEBRIS,U,69070C,2024-08-28 21:54:39,244608,14.46638653,0.0021589,74.0664,101.3803,164.4108,195.772,0,999,90070,0.00012325,4.19e-06,0,4461305,0 SL-8 DEB,1 04084U 69070C   24241.91295422  .00000419  00000-0  12325-3 0  9995,2 04084  74.0664 101.3803 0021589 164.4108 195.7720 14.46638653900703,1969-070C,4084,7114.785,99.541,752.01,721.29,0
GENERATED VIA SPACETRACK.ORG API,18 SPCS,4084,SL-8 DEB,DEBRIS,U,69070C,2024-08-29 22:48:22,851072,14.46639619,0.0021544,74.0662,99.4465,162.173,198.0189,0,999,90085,0.00013242,4.53e-06,0,4462302,0 SL-8 DEB,1 04084U 69070C   24242.95026448  .00000453  00000-0  13242-3 0  9997,2 04084  74.0662  99.4465 0021544 162.1730 198.0189 14.46639619900853,1969-070C,4084,7114.782,99.541,751.975,721.319,0
GENERATED VIA SPACETRACK.ORG API,18 SPCS,4084,SL-8 DEB,DEBRIS,U,69070C,2024-08-30 07:06:17,387712,14.46639775,0.0021527,74.0662,98.8019,161.4171,198.7779,0,999,90090,0.00012838,4.38e-06,0,4463476,0 SL-8 DEB,1 04084U 69070C   24243.29603458  .00000438  00000-0  12838-3 0  9990,2 04084  74.0662  98.8019 0021527 161.4171 198.7779 14.46639775900904,1969-070C,4084,7114.782,99.541,751.963,721.331,0
GENERATED VIA SPACETRACK.ORG API,18 SPCS,4084,SL-8 DEB,DEBRIS,U,69070C,2024-08-30 22:02:31,494912,14.46640602,0.0021504,74.0661,97.6416,160.0859,200.1144,0,999,90099,0.00014241,4.89e-06,0,4463804,0 SL-8 DEB,1 04084U 69070C   24243.91842008  .00000489  00000-0  14241-3 0  9991,2 04084  74.0661  97.6416 0021504 160.0859 200.1144 14.46640602900998,1969-070C,4084,7114.779,99.541,751.944,721.344,0
GENERATED VIA SPACETRACK.ORG API,18 SPCS,4084,SL-8 DEB,DEBRIS,U,69070C,2024-08-31 01:21:41,289696,14.46640784,0.0021496,74.066,97.3838,159.7898,200.4117,0,999,90099,0.00014422,4.95e-06,0,4464075,0 SL-8 DEB,1  4084U 69070C   24244.05672789  .00000495  00000-0  14422-3 0  9992,2  4084  74.0660  97.3838 0021496 159.7898 200.4117 14.46640784900994,1969-070C,4084,7114.778,99.541,751.937,721.349,0
GENERATED VIA SPACETRACK.ORG API,18 SPCS,4084,SL-8 DEB,DEBRIS,U,69070C,2024-08-31 01:21:41,289696,14.46640784,0.0021496,74.066,97.3838,159.7898,200.4117,0,999,90101,0.00014422,4.95e-06,0,4464732,0 SL-8 DEB,1 04084U 69070C   24244.05672789  .00000495  00000-0  14422-3 0  9992,2 04084  74.0660  97.3838 0021496 159.7898 200.4117 14.46640784901018,1969-070C,4084,7114.778,99.541,751.937,721.349,0
GENERATED VIA SPACETRACK.ORG API,18 SPCS,4084,SL-8 DEB,DEBRIS,U,69070C,2024-08-31 21:16:40,55808,14.46641552,0.002146,74.0659,95.8367,158.0056,202.2028,0,999,90113,0.00014328,4.92e-06,0,4465213,0 SL-8 DEB,1 04084U 69070C   24244.88657472  .00000492  00000-0  14328-3 0  9997,2 04084  74.0659  95.8367 0021460 158.0056 202.2028 14.46641552901133,1969-070C,4084,7114.776,99.541,751.909,721.372,0
GENERATED VIA SPACETRACK.ORG API,18 SPCS,4084,SL-8 DEB,DEBRIS,U,69070C,2024-09-01 13:52:29,5536,14.46642556,0.0021478,74.0658,94.5475,156.4319,203.7828,0,999,90123,0.0001594,5.5e-06,0,4466668,0 SL-8 DEB,1 04084U 69070C   24245.57811349  .00000550  00000-0  15940-3 0  9995,2 04084  74.0658  94.5475 0021478 156.4319 203.7828 14.46642556901231,1969-070C,4084,7114.772,99.541,751.919,721.356,0
GENERATED VIA SPACETRACK.ORG API,18 SPCS,4084,SL-8 DEB,DEBRIS,U,69070C,2024-09-01 22:10:23,458368,14.46642799,0.0021465,74.0658,93.9029,155.689,204.5286,0,999,90128,0.00015385,5.3e-06,0,4467281,0 SL-8 DEB,1 04084U 69070C   24245.92388262  .00000530  00000-0  15385-3 0  9998,2 04084  74.0658  93.9029 0021465 155.6890 204.5286 14.46642799901281,1969-070C,4084,7114.772,99.541,751.909,721.365,0
GENERATED VIA SPACETRACK.ORG API,18 SPCS,4084,SL-8 DEB,DEBRIS,U,69070C,2024-09-02 01:29:33,240192,14.46642895,0.0021443,74.0658,93.645,155.4158,204.8028,0,999,90128,0.00015191,5.23e-06,0,4467538,0 SL-8 DEB,1  4084U 69070C   24246.06219028  .00000523  00000-0  15191-3 0  9994,2  4084  74.0658  93.6450 0021443 155.4158 204.8028 14.46642895901281,1969-070C,4084,7114.771,99.541,751.893,721.38,0
GENERATED VIA SPACETRACK.ORG API,18 SPCS,4084,SL-8 DEB,DEBRIS,U,69070C,2024-09-02 14:46:12,370080,14.46643724,0.002142,74.0657,92.6137,154.216,206.0071,0,999,90138,0.00016786,5.81e-06,0,4468562,0 SL-8 DEB,1 04084U 69070C   24246.61542095  .00000581  00000-0  16786-3 0  9993,2 04084  74.0657  92.6137 0021420 154.2160 206.0071 14.46643724901381,1969-070C,4084,7114.769,99.541,751.873,721.394,0
GENERATED VIA SPACETRACK.ORG API,18 SPCS,4084,SL-8 DEB,DEBRIS,U,69070C,2024-09-02 21:24:31,900032,14.46644138,0.0021402,74.0658,92.098,153.6306,206.5948,0,999,90142,0.00017194,5.96e-06,0,4469143,0 SL-8 DEB,1 04084U 69070C   24246.89203588  .00000596  00000-0  17194-3 0  9994,2 04084  74.0658  92.0980 0021402 153.6306 206.5948 14.46644138901420,1969-070C,4084,7114.767,99.541,751.859,721.405,0
GENERATED VIA SPACETRACK.ORG API,18 SPCS,4084,SL-8 DEB,DEBRIS,U,69070C,2024-09-03 14:00:20,735712,14.46645306,0.0021378,74.0657,90.8087,152.1227,208.1082,0,999,90152,0.00019075,6.64e-06,0,4470264,0 SL-8 DEB,1 04084U 69070C   24247.58357333  .00000664  00000-0  19075-3 0  9995,2 04084  74.0657  90.8087 0021378 152.1227 208.1082 14.46645306901527,1969-070C,4084,7114.763,99.541,751.838,721.419,0
GENERATED VIA SPACETRACK.ORG API,18 SPCS,4084,SL-8 DEB,DEBRIS,U,69070C,2024-09-03 22:18:15,120288,14.46645859,0.0021352,74.0658,90.1641,151.384,208.8495,0,999,90157,0.00019621,6.84e-06,0,4470760,0 SL-8 DEB,1 04084U 69070C   24247.92934167  .00000684  00000-0  19621-3 0  9998,2 04084  74.0658  90.1641 0021352 151.3840 208.8495 14.46645859901574,1969-070C,4084,7114.762,99.541,751.818,721.435,0
GENERATED VIA SPACETRACK.ORG API,18 SPCS,4084,SL-8 DEB,DEBRIS,U,69070C,2024-09-04 14:54:03,887712,14.46646961,0.0021333,74.0657,88.8749,149.8872,210.3518,0,999,90167,0.00020841,7.28e-06,0,4471112,0 SL-8 DEB,1 04084U 69070C   24248.62087833  .00000728  00000-0  20841-3 0  9990,2 04084  74.0657  88.8749 0021333 149.8872 210.3518 14.46646961901672,1969-070C,4084,7114.758,99.541,751.801,721.445,0
GENERATED VIA SPACETRACK.ORG API,18 SPCS,4084,SL-8 DEB,DEBRIS,U,69070C,2024-09-05 00:51:33,136416,14.4664703,0.0021309,74.0657,88.1013,148.9901,211.2521,0,999,90173,0.00018672,6.49e-06,0,4472882,0 SL-8 DEB,1 04084U 69070C   24249.03580019  .00000649  00000-0  18672-3 0  9991,2 04084  74.0657  88.1013 0021309 148.9901 211.2521 14.46647030901734,1969-070C,4084,7114.758,99.541,751.784,721.462,0
GENERATED VIA SPACETRACK.ORG API,18 SPCS,4084,SL-8 DEB,DEBRIS,U,69070C,2024-09-05 22:26:06,451296,14.4664822,0.0021285,74.0658,86.4253,147.055,213.1941,0,999,90186,0.0001897,6.6e-06,0,4474121,0 SL-8 DEB,1 04084U 69070C   24249.93479689  .00000660  00000-0  18970-3 0  9994,2 04084  74.0658  86.4253 0021285 147.0550 213.1941 14.46648220901868,1969-070C,4084,7114.754,99.54,751.763,721.475,0
GENERATED VIA SPACETRACK.ORG API,18 SPCS,4084,SL-8 DEB,DEBRIS,U,69070C,2024-09-06 13:22:20,240544,14.46649191,0.0021274,74.0658,85.2649,145.6983,214.5555,0,999,90193,0.00019652,6.85e-06,0,4474444,0 SL-8 DEB,1  4084U 69070C   24250.55717871  .00000685  00000-0  19652-3 0  9997,2  4084  74.0658  85.2649 0021274 145.6983 214.5555 14.46649191901938,1969-070C,4084,7114.751,99.54,751.752,721.48,0
GENERATED VIA SPACETRACK.ORG API,18 SPCS,4084,SL-8 DEB,DEBRIS,U,69070C,2024-09-06 15:01:55,101216,14.46649291,0.0021272,74.0658,85.136,145.5529,214.7013,0,999,90196,0.00019655,6.85e-06,0,4474805,0 SL-8 DEB,1 04084U 69070C   24250.62633219  .00000685  00000-0  19655-3 0  9991,2 04084  74.0658  85.1360 0021272 145.5529 214.7013 14.46649291901965,1969-070C,4084,7114.75,99.54,751.75,721.481,0
GENERATED VIA SPACETRACK.ORG API,18 SPCS,4084,SL-8 DEB,DEBRIS,U,69070C,2024-09-07 14:16:03,133344,14.46651197,0.0021231,74.0659,83.3311,143.4398,216.8215,0,999,90210,0.00022599,7.92e-06,0,4476648,0 SL-8 DEB,1 04084U 69070C   24251.59448071  .00000792  00000-0  22599-3 0  9998,2 04084  74.0659  83.3311 0021231 143.4398 216.8215 14.46651197902100,1969-070C,4084,7114.744,99.54,751.714,721.504,0
GENERATED VIA SPACETRACK.ORG API,18 SPCS,4084,SL-8 DEB,DEBRIS,U,69070C,2024-09-07 22:33:57,401280,14.46651801,0.0021204,74.0659,82.6865,142.6752,217.5885,0,999,90215,0.000231,8.1e-06,0,4477330,0 SL-8 DEB,1 04084U 69070C   24251.94024770  .00000810  00000-0  23100-3 0  9993,2 04084  74.0659  82.6865 0021204 142.6752 217.5885 14.46651801902159,1969-070C,4084,7114.742,99.54,751.693,721.521,0
GENERATED VIA SPACETRACK.ORG API,18 SPCS,4084,SL-8 DEB,DEBRIS,U,69070C,2024-09-08 13:30:11,82528,14.46652244,0.0021181,74.066,81.5263,141.3124,218.9556,0,999,90224,0.00020804,7.27e-06,0,4478647,0 SL-8 DEB,1 04084U 69070C   24252.56262827  .00000727  00000-0  20804-3 0  9994,2 04084  74.0660  81.5263 0021181 141.3124 218.9556 14.46652244902246,1969-070C,4084,7114.741,99.54,751.675,721.536,0
